OBJECT_NAME,OBJECT_ID,EPOCH,MEAN_MOTION,ECCENTRICITY,INCLINATION,RA_OF_ASC_NODE,ARG_OF_PERICENTER,MEAN_ANOMALY,EPHEMERIS_TYPE,CLASSIFICATION_TYPE,NORAD_CAT_ID,ELEMENT_SET_NO,REV_AT_EPOCH,BSTAR,MEAN_MOTION_DOT,MEAN_MOTION_DDOT
JILIN-1 GAOFEN 03D47,2022-167L,2026-05-20T07:43:49.471968,15.33194121,.00071201,97.6917,308.7693,208.2172,151.8685,0,U,54692,999,19107,.22709056E-3,.7204E-4,0
JILIN-1 GAOFEN 03D49,2022-167N,2026-05-20T06:33:06.537312,15.36682352,.00048552,97.6793,309.1507,224.6841,135.4012,0,U,54694,999,19120,.24577566E-3,.8722E-4,0
JILIN-1 GAOFEN 03D48,2022-167P,2026-05-20T07:07:25.780224,15.34561996,.00060165,97.6865,308.6408,204.5220,155.5737,0,U,54695,999,19111,.23819891E-3,.7895E-4,0
SHIYAN-20A (SY-20A),2022-169A,2026-05-20T06:10:03.007200,14.29517893,.00106485,59.9977,332.7513,156.3229,203.8298,0,U,54699,999,17936,.42163121E-4,-.28E-6,0
SHIYAN-20B (SY-20B),2022-169B,2026-05-20T06:15:59.566176,14.29531079,.00140507,59.9979,332.8052,178.3989,181.7094,0,U,54700,999,17936,.46056108E-4,-.18E-6,0
GALAXY 35 (G-35),2022-170A,2026-05-20T05:14:09.081024,1.00270426,.00019229,0.0100,327.1989,93.9221,162.1858,0,U,54741,999,1261,0,-.166E-5,0
GALAXY 36 (G-36),2022-170B,2026-05-20T05:15:16.473024,1.00270073,.00023701,0.0149,238.0781,192.0747,157.5379,0,U,54742,999,1249,0,-.189E-5,0
METEOSAT-12 (MTG-I1),2022-170C,2026-05-20T05:09:14.918400,1.00273178,.00007128,0.7519,26.1476,341.5984,307.1112,0,U,54743,999,1269,0,-.12E-6,0
YAOGAN-36 04A,2022-171A,2026-05-20T03:34:50.322720,15.20607852,.00070549,34.9910,37.1959,29.4606,330.6504,0,U,54746,999,19085,.21905798E-3,.4887E-4,0
YAOGAN-36 04B,2022-171C,2026-05-20T02:24:07.534080,15.23092359,.0003595,35.0059,11.5705,289.2621,70.7705,0,U,54748,999,19110,.31283491E-3,.7528E-4,0
YAOGAN-36 04C,2022-171E,2026-05-20T01:36:45.690336,15.31704533,.00066817,34.9813,2.8580,242.3427,117.6613,0,U,54750,999,19117,.33101366E-3,.10381E-3,0
SHIYAN-21 (SY-21),2022-172A,2026-05-20T08:15:14.365728,15.28400945,.00200021,35.9794,246.0750,2.6904,357.3934,0,U,54752,999,19142,.19549054E-3,.5502E-4,0
SWOT,2022-173A,2026-05-20T06:20:09.751200,14.00172953,.00009663,77.6107,73.0025,95.9192,264.2070,0,U,54754,999,17524,.64291635E-4,.92E-6,0
O3B MPOWER F1,2022-174A,2026-05-20T04:34:55.773120,5.00117048,.00061417,0.0562,344.8257,89.2704,343.9094,0,U,54755,999,6395,0,-.22E-6,0
O3B MPOWER F2,2022-174B,2026-05-19T22:12:47.741184,5.00115125,.0005933,0.0528,343.1875,72.2263,304.6424,0,U,54756,999,6403,0,-.21E-6,0
STARLINK-5464,2022-175A,2026-05-20T03:26:48.811200,15.08812093,.00015491,53.2179,78.5455,84.2545,275.8624,0,U,54758,999,19077,-.78346674E-4,-.1534E-4,0
STARLINK-5215,2022-175B,2026-05-20T03:32:04.233408,15.08840580,.00014734,53.2175,78.5612,87.5010,272.6151,0,U,54759,999,19077,.53487612E-4,.563E-5,0
STARLINK-5220,2022-175C,2026-05-20T03:28:45.153120,15.08836888,.00015887,53.2178,83.5335,83.1795,276.9378,0,U,54760,999,19070,.35631155E-4,.279E-5,0
STARLINK-5202,2022-175D,2026-05-20T03:34:04.986912,15.08824770,.00012462,53.2176,83.5554,67.1862,292.9261,0,U,54761,999,19070,.27099699E-3,.4026E-4,0
STARLINK-5214,2022-175E,2026-05-20T03:12:50.033952,15.08836857,.0001457,53.2174,83.4670,84.5240,275.5918,0,U,54762,999,19070,.21979895E-4,.62E-6,0
STARLINK-5191,2022-175F,2026-05-20T01:48:03.597696,15.08837175,.00015225,53.2179,83.8068,71.5632,288.5526,0,U,54763,999,19069,.29434282E-4,.18E-5,0
STARLINK-5458,2022-175G,2026-05-20T01:17:36.072672,15.08839652,.0001546,53.2170,83.6826,81.5046,278.6121,0,U,54764,999,19069,.52473252E-4,.547E-5,0
STARLINK-5471,2022-175J,2026-05-20T03:02:13.048224,15.08839877,.00015084,53.2174,83.4204,88.4331,271.6834,0,U,54766,999,19070,.7760116E-5,-.164E-5,0
STARLINK-5472,2022-175K,2026-05-20T02:56:54.823200,15.08841354,.00017163,53.2171,83.3971,74.6153,285.5029,0,U,54767,999,19070,.7261632E-5,-.173E-5,0
STARLINK-5444,2022-175L,2026-05-20T02:15:18.904320,15.08839179,.00017853,53.2166,68.9577,80.5196,279.5998,0,U,54768,999,19090,.4227224E-5,-.221E-5,0
STARLINK-5448,2022-175N,2026-05-20T01:47:23.492544,15.08846702,.00016388,53.2153,68.8428,91.1540,268.9640,0,U,54770,999,19090,.79764147E-4,.982E-5,0
STARLINK-5451,2022-175P,2026-05-20T05:44:30.167520,15.08829711,.00015764,53.2164,77.7209,82.1780,277.9391,0,U,54771,999,19079,.6425539E-5,-.186E-5,0
STARLINK-5452,2022-175Q,2026-05-20T01:42:05.598432,15.08841029,.00014951,53.2177,68.8223,84.4987,275.6176,0,U,54772,999,19090,.25658105E-4,.12E-5,0
STARLINK-5453,2022-175R,2026-05-20T01:10:55.087680,15.08837618,.00018601,53.2170,83.6506,62.8876,297.2306,0,U,54773,999,19069,.29373925E-4,.179E-5,0
STARLINK-5454,2022-175S,2026-05-20T02:13:48.723456,15.08836669,.00014918,53.2170,68.2570,90.5473,269.5691,0,U,54774,999,19091,.9272484E-5,-.14E-5,0
