JILIN-1 GAOFEN 03D47    
1 54692U 22167L   26140.32210037  .00007204  00000+0  22709-3 0  9990
2 54692  97.6917 308.7693 0007120 208.2172 151.8685 15.33194121191077
JILIN-1 GAOFEN 03D49    
1 54694U 22167N   26140.27299233  .00008722  00000+0  24578-3 0  9993
2 54694  97.6793 309.1507 0004855 224.6841 135.4012 15.36682352191205
JILIN-1 GAOFEN 03D48    
1 54695U 22167P   26140.29682616  .00007895  00000+0  23820-3 0  9996
2 54695  97.6865 308.6408 0006016 204.5220 155.5737 15.34561996191114
SHIYAN-20A (SY-20A)     
1 54699U 22169A   26140.25697925 -.00000028  00000+0  42163-4 0  9991
2 54699  59.9977 332.7513 0010648 156.3229 203.8298 14.29517893179369
SHIYAN-20B (SY-20B)     
1 54700U 22169B   26140.26110609 -.00000018  00000+0  46056-4 0  9998
2 54700  59.9979 332.8052 0014050 178.3989 181.7094 14.29531079179361
GALAXY 35 (G-35)        
1 54741U 22170A   26140.21816066 -.00000166  00000+0  00000+0 0  9998
2 54741   0.0100 327.1989 0001922  93.9221 162.1858  1.00270426 12616
GALAXY 36 (G-36)        
1 54742U 22170B   26140.21894066 -.00000189  00000+0  00000+0 0  9990
2 54742   0.0149 238.0781 0002370 192.0747 157.5379  1.00270073 12492
METEOSAT-12 (MTG-I1)    
1 54743U 22170C   26140.21475600 -.00000012  00000+0  00000+0 0  9995
2 54743   0.7519  26.1476 0000712 341.5984 307.1112  1.00273178 12699
YAOGAN-36 04A           
1 54746U 22171A   26140.14919355  .00004887  00000+0  21906-3 0  9996
2 54746  34.9910  37.1959 0007054  29.4606 330.6504 15.20607852190851
YAOGAN-36 04B           
1 54748U 22171C   26140.10008720  .00007528  00000+0  31283-3 0  9993
2 54748  35.0059  11.5705 0003595 289.2621  70.7705 15.23092359191100
YAOGAN-36 04C           
1 54750U 22171E   26140.06719549  .00010381  00000+0  33101-3 0  9991
2 54750  34.9813   2.8580 0006681 242.3427 117.6613 15.31704533191175
SHIYAN-21 (SY-21)       
1 54752U 22172A   26140.34391627  .00005502  00000+0  19549-3 0  9997
2 54752  35.9794 246.0750 0020002   2.6904 357.3934 15.28400945191420
SWOT                    
1 54754U 22173A   26140.26400175  .00000092  00000+0  64292-4 0  9995
2 54754  77.6107  73.0025 0000966  95.9192 264.2070 14.00172953175240
O3B MPOWER F1           
1 54755U 22174A   26140.19092330 -.00000022  00000+0  00000+0 0  9995
2 54755   0.0562 344.8257 0006141  89.2704 343.9094  5.00117048 63957
O3B MPOWER F2           
1 54756U 22174B   26139.92555256 -.00000021  00000+0  00000+0 0  9995
2 54756   0.0528 343.1875 0005933  72.2263 304.6424  5.00115125 64033
STARLINK-5464           
1 54758U 22175A   26140.14362050 -.00001534  00000+0 -78347-4 0  9997
2 54758  53.2179  78.5455 0001549  84.2545 275.8624 15.08812093190774
STARLINK-5215           
1 54759U 22175B   26140.14727122  .00000563  00000+0  53488-4 0  9991
2 54759  53.2175  78.5612 0001473  87.5010 272.6151 15.08840580190777
STARLINK-5220           
1 54760U 22175C   26140.14496705  .00000279  00000+0  35631-4 0  9997
2 54760  53.2178  83.5335 0001588  83.1795 276.9378 15.08836888190706
STARLINK-5202           
1 54761U 22175D   26140.14866883  .00004026  00000+0  27100-3 0  9991
2 54761  53.2176  83.5554 0001246  67.1862 292.9261 15.08824770190702
STARLINK-5214           
1 54762U 22175E   26140.13391243  .00000062  00000+0  21980-4 0  9991
2 54762  53.2174  83.4670 0001457  84.5240 275.5918 15.08836857190701
STARLINK-5191           
1 54763U 22175F   26140.07504164  .00000180  00000+0  29434-4 0  9996
2 54763  53.2179  83.8068 0001522  71.5632 288.5526 15.08837175190697
STARLINK-5458           
1 54764U 22175G   26140.05388973  .00000547  00000+0  52473-4 0  9999
2 54764  53.2170  83.6826 0001546  81.5046 278.6121 15.08839652190698
STARLINK-5471           
1 54766U 22175J   26140.12653991 -.00000164  00000+0  77601-5 0  9991
2 54766  53.2174  83.4204 0001508  88.4331 271.6834 15.08839877190708
STARLINK-5472           
1 54767U 22175K   26140.12285675 -.00000173  00000+0  72616-5 0  9993
2 54767  53.2171  83.3971 0001716  74.6153 285.5029 15.08841354190709
STARLINK-5444           
1 54768U 22175L   26140.09396880 -.00000221  00000+0  42272-5 0  9990
2 54768  53.2166  68.9577 0001785  80.5196 279.5998 15.08839179190906
STARLINK-5448           
1 54770U 22175N   26140.07457746  .00000982  00000+0  79764-4 0  9998
2 54770  53.2153  68.8428 0001638  91.1540 268.9640 15.08846702190903
STARLINK-5451           
1 54771U 22175P   26140.23923805 -.00000186  00000+0  64255-5 0  9998
2 54771  53.2164  77.7209 0001576  82.1780 277.9391 15.08829711190790
STARLINK-5452           
1 54772U 22175Q   26140.07089813  .00000120  00000+0  25658-4 0  9993
2 54772  53.2177  68.8223 0001495  84.4987 275.6176 15.08841029190901
STARLINK-5453           
1 54773U 22175R   26140.04924870  .00000179  00000+0  29374-4 0  9995
2 54773  53.2170  83.6506 0001860  62.8876 297.2306 15.08837618190697
STARLINK-5454           
1 54774U 22175S   26140.09292504 -.00000140  00000+0  92725-5 0  9993
2 54774  53.2170  68.2570 0001491  90.5473 269.5691 15.08836669190918
